start=new Date('2022-05-07T00:00:00.000Z').valueOf();
sats=[{"BSTAR":"0.00085010000000","LAUNCH_DATE":"2020-01-29","RA_OF_ASC_NODE":"105.4564","RCS_SIZE":"LARGE","CLASSIFICATION_TYPE":"U","OBJECT_NAME":"STARLINK-1135","PERIOD":"95.447","EPHEMERIS_TYPE":"0","INCLINATION":"53.0542","REV_AT_EPOCH":"12496","DECAY_DATE":null,"COUNTRY_CODE":"US","ARG_OF_PERICENTER":"50.1321","PERIAPSIS":"539.980","APOAPSIS":"540.420","TIME_SYSTEM":"UTC","MEAN_ELEMENT_THEORY":"SGP4","TLE_LINE1":"1 45049U 20006F   22126.41665419  .00013214  00000-0  85010-3 0  9997","MEAN_MOTION_DOT":"0.00013214","MEAN_MOTION_DDOT":"0.0000000000000","NORAD_CAT_ID":"45049","OBJECT_ID":"2020-006F","FILE":"3432208","TLE_LINE2":"2 45049  53.0542 105.4564 0000318  50.1321 309.9697 15.08691151124964","EPOCH":"2022-05-06T09:59:58.922016","SITE":"AFETR","ELEMENT_SET_NO":"999","REF_FRAME":"TEME","MEAN_MOTION":"15.08691151","CENTER_NAME":"EARTH","SEMIMAJOR_AXIS":"6918.335","ECCENTRICITY":"0.00003180","GP_ID":"202859218","OBJECT_TYPE":"PAYLOAD","MEAN_ANOMALY":"309.9697"},{"OBJECT_TYPE":"PAYLOAD","MEAN_ANOMALY":"308.1057","CENTER_NAME":"EARTH","MEAN_MOTION":"15.06399593","SEMIMAJOR_AXIS":"6925.350","GP_ID":"202859944","ECCENTRICITY":"0.00019760","ELEMENT_SET_NO":"999","SITE":"AFETR","EPOCH":"2022-05-06T08:37:08.576256","TLE_LINE2":"2 45050  53.0530 106.4055 0001976  52.0110 308.1057 15.06399593124949","REF_FRAME":"TEME","FILE":"3432208","ARG_OF_PERICENTER":"52.0110","PERIAPSIS":"545.846","MEAN_ELEMENT_THEORY":"SGP4","TIME_SYSTEM":"UTC","APOAPSIS":"548.583","MEAN_MOTION_DDOT":"0.0000000000000","OBJECT_ID":"2020-006G","MEAN_MOTION_DOT":"0.00001253","NORAD_CAT_ID":"45050","TLE_LINE1":"1 45050U 20006G   22126.35912704  .00001253  00000-0  10298-3 0  9990","REV_AT_EPOCH":"12494","COUNTRY_CODE":"US","DECAY_DATE":null,"EPHEMERIS_TYPE":"0","PERIOD":"95.592","INCLINATION":"53.0530","BSTAR":"0.00010298000000","RA_OF_ASC_NODE":"106.4055","LAUNCH_DATE":"2020-01-29","RCS_SIZE":"LARGE","CLASSIFICATION_TYPE":"U","OBJECT_NAME":"STARLINK-1140"},{"OBJECT_TYPE":"PAYLOAD","MEAN_ANOMALY":"299.8464","MEAN_MOTION":"15.11042276","CENTER_NAME":"EARTH","ECCENTRICITY":"0.00023730","GP_ID":"202858217","SEMIMAJOR_AXIS":"6911.157","REF_FRAME":"TEME","TLE_LINE2":"2 45051  53.0498 103.8103 0002373  60.2763 299.8464 15.11042276124986","EPOCH":"2022-05-06T09:18:36.187776","ELEMENT_SET_NO":"999","SITE":"AFETR","FILE":"3432208","PERIAPSIS":"531.382","ARG_OF_PERICENTER":"60.2763","TLE_LINE1":"1 45051U 20006H   22126.38791884  .00040484  00000-0  23975-2 0  9992","MEAN_MOTION_DOT":"0.00040484","MEAN_MOTION_DDOT":"0.0000000000000","NORAD_CAT_ID":"45051","OBJECT_ID":"2020-006H","TIME_SYSTEM":"UTC","APOAPSIS":"534.662","MEAN_ELEMENT_THEORY":"SGP4","REV_AT_EPOCH":"12498","DECAY_DATE":null,"COUNTRY_CODE":"US","INCLINATION":"53.0498","PERIOD":"95.298","EPHEMERIS_TYPE":"0","LAUNCH_DATE":"2020-01-29","RA_OF_ASC_NODE":"103.8103","BSTAR":"0.00239750000000","OBJECT_NAME":"STARLINK-1141","CLASSIFICATION_TYPE":"U","RCS_SIZE":"LARGE"},{"TLE_LINE2":"2 45052  53.0540 106.3752 0001722  60.8465 299.2696 15.06395858124943","EPOCH":"2022-05-06T08:47:45.314880","SITE":"AFETR","ELEMENT_SET_NO":"999","REF_FRAME":"TEME","FILE":"3432208","MEAN_ANOMALY":"299.2696","OBJECT_TYPE":"PAYLOAD","SEMIMAJOR_AXIS":"6925.361","ECCENTRICITY":"0.00017220","GP_ID":"202858970","MEAN_MOTION":"15.06395858","CENTER_NAME":"EARTH","PERIOD":"95.592","EPHEMERIS_TYPE":"0","INCLINATION":"53.0540","CLASSIFICATION_TYPE":"U","RCS_SIZE":"LARGE","OBJECT_NAME":"STARLINK-1148","BSTAR":"-0.00007209500000","LAUNCH_DATE":"2020-01-29","RA_OF_ASC_NODE":"106.3752","TIME_SYSTEM":"UTC","APOAPSIS":"548.419","MEAN_ELEMENT_THEORY":"SGP4","TLE_LINE1":"1 45052U 20006J   22126.36649670 -.00001355  00000-0 -72095-4 0  9991","MEAN_MOTION_DOT":"-0.00001355","MEAN_MOTION_DDOT":"0.0000000000000","NORAD_CAT_ID":"45052","OBJECT_ID":"2020-006J","ARG_OF_PERICENTER":"60.8465","PERIAPSIS":"546.034","DECAY_DATE":null,"COUNTRY_CODE":"US","REV_AT_EPOCH":"12494"},{"PERIOD":"95.272","EPHEMERIS_TYPE":"0","INCLINATION":"53.0011","CLASSIFICATION_TYPE":"U","RCS_SIZE":"LARGE","OBJECT_NAME":"STARLINK-1155","BSTAR":"0.00092810000000","LAUNCH_DATE":"2020-01-29","RA_OF_ASC_NODE":"101.0352","TIME_SYSTEM":"UTC","APOAPSIS":"533.272","MEAN_ELEMENT_THEORY":"SGP4","TLE_LINE1":"1 45053U 20006K   22126.19943000  .00015619  00000-0  92810-3 0  9999","MEAN_MOTION_DDOT":"0.0000000000000","MEAN_MOTION_DOT":"0.00015619","OBJECT_ID":"2020-006K","NORAD_CAT_ID":"45053","ARG_OF_PERICENTER":"62.3127","PERIAPSIS":"530.218","DECAY_DATE":null,"COUNTRY_CODE":"US","REV_AT_EPOCH":"12497","TLE_LINE2":"2 45053  53.0011 101.0352 0002210  62.3127 297.8088 15.11461308124972","EPOCH":"2022-05-06T04:47:10.752000","SITE":"AFETR","ELEMENT_SET_NO":"999","REF_FRAME":"TEME","FILE":"3432208","MEAN_ANOMALY":"297.8088","OBJECT_TYPE":"PAYLOAD","SEMIMAJOR_AXIS":"6909.880","ECCENTRICITY":"0.00022100","GP_ID":"202859719","MEAN_MOTION":"15.11461308","CENTER_NAME":"EARTH"},{"BSTAR":"0.00009265000000","RA_OF_ASC_NODE":"107.0017","LAUNCH_DATE":"2020-01-29","RCS_SIZE":"LARGE","CLASSIFICATION_TYPE":"U","OBJECT_NAME":"STARLINK-1156","EPHEMERIS_TYPE":"0","PERIOD":"95.592","INCLINATION":"53.0534","REV_AT_EPOCH":"12492","COUNTRY_CODE":"US","DECAY_DATE":null,"ARG_OF_PERICENTER":"60.5585","PERIAPSIS":"545.857","MEAN_ELEMENT_THEORY":"SGP4","APOAPSIS":"548.571","TIME_SYSTEM":"UTC","MEAN_MOTION_DDOT":"0.0000000000000","MEAN_MOTION_DOT":"0.00001099","NORAD_CAT_ID":"45054","OBJECT_ID":"2020-006L","TLE_LINE1":"1 45054U 20006L   22126.23011297  .00001099  00000-0  92650-4 0  9999","FILE":"3432208","SITE":"AFETR","ELEMENT_SET_NO":"999","EPOCH":"2022-05-06T05:31:21.760608","TLE_LINE2":"2 45054  53.0534 107.0017 0001959  60.5585 299.5599 15.06399799124923","REF_FRAME":"TEME","CENTER_NAME":"EARTH","MEAN_MOTION":"15.06399799","SEMIMAJOR_AXIS":"6925.349","GP_ID":"202859444","ECCENTRICITY":"0.00019590","OBJECT_TYPE":"PAYLOAD","MEAN_ANOMALY":"299.5599"},{"PERIAPSIS":"545.850","ARG_OF_PERICENTER":"61.1308","OBJECT_ID":"2020-006P","MEAN_MOTION_DDOT":"0.0000000000000","MEAN_MOTION_DOT":"0.00000984","NORAD_CAT_ID":"45057","TLE_LINE1":"1 45057U 20006P   22126.31119955  .00000984  00000-0  84968-4 0  9996","MEAN_ELEMENT_THEORY":"SGP4","APOAPSIS":"548.536","TIME_SYSTEM":"UTC","REV_AT_EPOCH":"12494","COUNTRY_CODE":"US","DECAY_DATE":null,"INCLINATION":"53.0565","EPHEMERIS_TYPE":"0","PERIOD":"95.592","RA_OF_ASC_NODE":"106.6146","LAUNCH_DATE":"2020-01-29","BSTAR":"0.00008496800000","OBJECT_NAME":"STARLINK-1159","CLASSIFICATION_TYPE":"U","RCS_SIZE":"LARGE","OBJECT_TYPE":"PAYLOAD","MEAN_ANOMALY":"298.9875","CENTER_NAME":"EARTH","MEAN_MOTION":"15.06406640","GP_ID":"202858718","ECCENTRICITY":"0.00019390","SEMIMAJOR_AXIS":"6925.328","REF_FRAME":"TEME","ELEMENT_SET_NO":"999","SITE":"AFETR","TLE_LINE2":"2 45057  53.0565 106.6146 0001939  61.1308 298.9875 15.06406640124942","EPOCH":"2022-05-06T07:28:07.641120","FILE":"3432208"},{"ELEMENT_SET_NO":"999","SITE":"AFETR","EPOCH":"2022-05-06T08:53:03.943392","TLE_LINE2":"2 45058  53.0550 106.3551 0001895  51.5303 308.5856 15.06392948124956","REF_FRAME":"TEME","FILE":"3432208","OBJECT_TYPE":"PAYLOAD","MEAN_ANOMALY":"308.5856","CENTER_NAME":"EARTH","MEAN_MOTION":"15.06392948","SEMIMAJOR_AXIS":"6925.370","GP_ID":"202858470","ECCENTRICITY":"0.00018950","EPHEMERIS_TYPE":"0","PERIOD":"95.593","INCLINATION":"53.0550","BSTAR":"-0.00005643100000","RA_OF_ASC_NODE":"106.3551","LAUNCH_DATE":"2020-01-29","RCS_SIZE":"LARGE","CLASSIFICATION_TYPE":"U","OBJECT_NAME":"STARLINK-1162","ARG_OF_PERICENTER":"51.5303","PERIAPSIS":"545.923","MEAN_ELEMENT_THEORY":"SGP4","TIME_SYSTEM":"UTC","APOAPSIS":"548.548","OBJECT_ID":"2020-006Q","MEAN_MOTION_DDOT":"0.0000000000000","MEAN_MOTION_DOT":"-0.00001122","NORAD_CAT_ID":"45058","TLE_LINE1":"1 45058U 20006Q   22126.37018453 -.00001122  00000-0 -56431-4 0  9995","REV_AT_EPOCH":"12495","COUNTRY_CODE":"US","DECAY_DATE":null},{"REF_FRAME":"TEME","EPOCH":"2022-05-06T11:00:26.901216","TLE_LINE2":"2 45059  53.0545 105.9742 0001921  60.4424 299.6757 15.06401474124967","ELEMENT_SET_NO":"999","SITE":"AFETR","FILE":"3432208","OBJECT_TYPE":"PAYLOAD","MEAN_ANOMALY":"299.6757","MEAN_MOTION":"15.06401474","CENTER_NAME":"EARTH","ECCENTRICITY":"0.00019210","GP_ID":"202859219","SEMIMAJOR_AXIS":"6925.344","INCLINATION":"53.0545","PERIOD":"95.592","EPHEMERIS_TYPE":"0","LAUNCH_DATE":"2020-01-29","RA_OF_ASC_NODE":"105.9742","BSTAR":"0.00013694000000","OBJECT_NAME":"STARLINK-1165","CLASSIFICATION_TYPE":"U","RCS_SIZE":"LARGE","PERIAPSIS":"545.879","ARG_OF_PERICENTER":"60.4424","TLE_LINE1":"1 45059U 20006R   22126.45864469  .00001759  00000-0  13694-3 0  9998","MEAN_MOTION_DOT":"0.00001759","MEAN_MOTION_DDOT":"0.0000000000000","NORAD_CAT_ID":"45059","OBJECT_ID":"2020-006R","TIME_SYSTEM":"UTC","APOAPSIS":"548.539","MEAN_ELEMENT_THEORY":"SGP4","REV_AT_EPOCH":"12496","DECAY_DATE":null,"COUNTRY_CODE":"US"},{"CENTER_NAME":"EARTH","MEAN_MOTION":"15.06434559","SEMIMAJOR_AXIS":"6925.243","GP_ID":"202859945","ECCENTRICITY":"0.00021680","OBJECT_TYPE":"PAYLOAD","MEAN_ANOMALY":"312.1569","FILE":"3432208","ELEMENT_SET_NO":"999","SITE":"AFETR","TLE_LINE2":"2 45060  53.0544 105.9847 0002168  47.9604 312.1569 15.06434559124960","EPOCH":"2022-05-06T10:55:08.269248","REF_FRAME":"TEME","REV_AT_EPOCH":"12496","COUNTRY_CODE":"US","DECAY_DATE":null,"ARG_OF_PERICENTER":"47.9604","PERIAPSIS":"545.606","MEAN_ELEMENT_THEORY":"SGP4","APOAPSIS":"548.609","TIME_SYSTEM":"UTC","MEAN_MOTION_DOT":"-0.00007290","MEAN_MOTION_DDOT":"0.0000000000000","NORAD_CAT_ID":"45060","OBJECT_ID":"2020-006S","TLE_LINE1":"1 45060U 20006S   22126.45495682 -.00007290  00000-0 -47052-3 0  9990","BSTAR":"-0.00047052000000","RA_OF_ASC_NODE":"105.9847","LAUNCH_DATE":"2020-01-29","CLASSIFICATION_TYPE":"U","RCS_SIZE":"LARGE","OBJECT_NAME":"STARLINK-1166","EPHEMERIS_TYPE":"0","PERIOD":"95.590","INCLINATION":"53.0544"}];
